0 FENGYUN 1C DEB
1 32326U 99025CXT 13282.04906316  .00000369  00000-0  29699-3 0  3952
2 32326 098.4725 345.3658 0403916 069.0799 045.4065 13.62863614310581
0 FENGYUN 1C DEB
1 32326U 99025CXT 13283.43210884  .00000345  00000-0  27926-3 0  3960
2 32326 098.4724 346.5728 0403880 065.4296 351.0452 13.62864369310778
0 FENGYUN 1C DEB
1 32326U 99025CXT 13285.41473645  .00000320  00000-0  26070-3 0  3979
2 32326 098.4722 348.3034 0403790 060.1959 358.4232 13.62864888311048
0 FENGYUN 1C DEB
1 32326U 99025CXT 13287.39677087  .00000392  00000-0  31415-3 0  3983
2 32326 098.4717 350.0336 0403709 054.9618 002.9000 13.62865858311312
0 FENGYUN 1C DEB
1 32326U 99025CXT 13288.42422574  .00000530  00000-0  41602-3 0  3991
2 32326 098.4715 350.9306 0403671 052.2422 003.9229 13.62867300311451
0 FENGYUN 1C DEB
1 32326U 99025CXT 13289.97882065  .00000407  00000-0  32564-3 0  4000
2 32326 098.4711 352.2878 0403579 048.1321 071.2653 13.62868594311663
0 FENGYUN 1C DEB
1 32326U 99025CXT 13291.00659988  .00000386  00000-0  31024-3 0  4010
2 32326 098.4708 353.1847 0403514 045.4160 073.8850 13.62869328311804
0 FENGYUN 1C DEB
1 32326U 99025CXT 13292.38889008  .00000385  00000-0  31000-3 0  4024
2 32326 098.4706 354.3911 0403445 041.7622 015.8553 13.62870103311991
0 FENGYUN 1C DEB
1 32326U 99025CXT 13293.41629779  .00000405  00000-0  32476-3 0  4038
2 32326 098.4705 355.2878 0403378 039.0441 016.6607 13.62870909312136
0 FENGYUN 1C DEB
1 32326U 99025CXT 13295.04263348  .00000408  00000-0  32739-3 0  4041
2 32326 098.4705 356.7071 0403293 034.7415 076.0129 13.62872257312357
